{"type": "FeatureCollection", "features": [{"type": "Feature", "properties": {"nome": "VILA MARIANA"}, "geometry": {"type": "Polygon", "coordinates": [[[-46.64409191535669, -23.59964026934339], [-46.64820438330262, -23.599252525770634], [-46.65081499153166, -23.59868318330588], [-46.65040102794265, -23.593460693967728], [-46.650103609319856, -23.59241626010964], [-46.649843506721005, -23.592310118539583], [-46.64891225258578, -23.592393351891616], [-46.64879304958773, -23.59218681535681], [-46.64931685890973, -23.591809749522227], [-46.649694947670014, -23.590710639777047], [-46.64962875126427, -23.590361241877577], [-46.64812128258029, -23.588822177771515], [-46.64839109030037, -23.58740795369942], [-46.64773333681442, -23.585884269123316], [-46.647789032795544, -23.584632918312394], [-46.64929763847658, -23.58254930086261], [-46.64941536300727, -23.58157919191485], [-46.65098563926764, -23.58000091686611], [-46.6511784706447, -23.57963263188851], [-46.65069206016659, -23.57415243372263], [-46.65281111263154, -23.572998244253522], [-46.65361013844898, -23.572192624814537], [-46.649013620776266, -23.567816666238876], [-46.64439965099953, -23.571373628987427], [-46.64421607680176, -23.57115112746085], [-46.64181089498999, -23.573037487376766], [-46.635440784661355, -23.575080738821885], [-46.633727970906456, -23.575026057474922], [-46.63431781227405, -23.575441527466516], [-46.63418080798644, -23.575629021804456], [-46.633688430289915, -23.575648567670083], [-46.63352042502774, -23.575838075181554], [-46.63303130866048, -23.576816862359614], [-46.632889804795134, -23.577985156317965], [-46.632522782450984, -23.578558820693647], [-46.62920048674393, -23.57884604283817], [-46.62830656059138, -23.578675961932472], [-46.62792202271109, -23.578240910319938], [-46.61930115419369, -23.578160498172732], [-46.61406721745734, -23.581948179758932], [-46.61499316969708, -23.58326577674959], [-46.61679870237037, -23.583801741651428], [-46.61739712620687, -23.584196877653746], [-46.61917101410757, -23.58722015230696], [-46.619708785547594, -23.58871331048816], [-46.62099262769625, -23.594828447880356], [-46.62359283529912, -23.599821990764095], [-46.64409191535669, -23.59964026934339]]]}}]}